{
  "type": "FeatureCollection",
  "name": "PondicherryUniversityCampus",
  "crs": {
    "type": "name",
    "properties": { "name": "urn:ogc:def:crs:OGC:1.3:CRS84" }
  },
  "features": [
    {
      "type": "Feature",
      "properties": {
        "id": "pu-main-campus",
        "name": "Pondicherry University Main Campus",
        "category": "university_campus",
        "speed_limit_kmh": 20,
        "is_active_zone": true
      },
      "geometry": {
        "type": "Polygon",
        "coordinates": [
          [
            [79.8485, 12.0210],
            [79.8530, 12.0200],
            [79.8590, 12.0205],
            [79.8605, 12.0240],
            [79.8600, 12.0305],
            [79.8585, 12.0320],
            [79.8540, 12.0315],
            [79.8500, 12.0300],
            [79.8475, 12.0260],
            [79.8485, 12.0210]
          ]
        ]
      }
    },
    {
      "type": "Feature",
      "properties": {
        "id": "pu-sjc-campus",
        "name": "Silver Jubilee Campus (SJC)",
        "category": "academic_campus",
        "speed_limit_kmh": 20,
        "is_active_zone": true
      },
      "geometry": {
        "type": "Polygon",
        "coordinates": [
          [
            [79.8505, 12.0265],
            [79.8545, 12.0265],
            [79.8545, 12.0298],
            [79.8505, 12.0298],
            [79.8505, 12.0265]
          ]
        ]
      }
    }
  ]
}
